CUAVA-2                 
1 60527U 24149BM  26068.46955133  .00015400  00000+0  47570-3 0  9993
2 60527  97.3769 149.9859 0005669 291.2139  68.8497 15.33611708 86877
KUIPER-00247            
1 67152U 25301V   26068.21897173  .00018882  00000+0  52476-3 0  9995
2 67152  51.8623  68.2445 0014324  56.7606 303.4751 15.36802901 13654
