[{"OBJECT_NAME":"CUAVA-2","OBJECT_ID":"2024-149BM","EPOCH":"2026-03-09T11:16:09.234912","MEAN_MOTION":15.33611708,"ECCENTRICITY":0.00056694,"INCLINATION":97.3769,"RA_OF_ASC_NODE":149.9859,"ARG_OF_PERICENTER":291.2139,"MEAN_ANOMALY":68.8497,"EPHEMERIS_TYPE":0,"CLASSIFICATION_TYPE":"U","NORAD_CAT_ID":60527,"ELEMENT_SET_NO":999,"REV_AT_EPOCH":8687,"BSTAR":0.00047570318,"MEAN_MOTION_DOT":0.000154,"MEAN_MOTION_DDOT":0},{"OBJECT_NAME":"KUIPER-00247","OBJECT_ID":"2025-301V","EPOCH":"2026-03-09T05:15:19.157472","MEAN_MOTION":15.36802901,"ECCENTRICITY":0.00143246,"INCLINATION":51.8623,"RA_OF_ASC_NODE":68.2445,"ARG_OF_PERICENTER":56.7606,"MEAN_ANOMALY":303.4751,"EPHEMERIS_TYPE":0,"CLASSIFICATION_TYPE":"U","NORAD_CAT_ID":67152,"ELEMENT_SET_NO":999,"REV_AT_EPOCH":1365,"BSTAR":0.00052475545,"MEAN_MOTION_DOT":0.00018882,"MEAN_MOTION_DDOT":0}]
